{"type": "FeatureCollection", "features": [ {"type": "Feature", "properties": {"norad_id": 35982, "name": "COSMOS 2251 DEB", "group": "cosmos-2251-debris", "lat": -32.7817923832237, "lon": -48.95872240913502, "alt_km": 665.685304156742, "timestamp": "2025-12-25T22:42:17.410060+00:00", "meta": {"OBJECT_NAME": "COSMOS 2251 DEB", "OBJECT_ID": "1993-036AVY", "EPOCH": "2025-12-24T04:11:05.846208", "MEAN_MOTION": 14.628153, "ECCENTRICITY": 0.00645539, "INCLINATION": 74.0585, "RA_OF_ASC_NODE": 325.0386, "ARG_OF_PERICENTER": 27.9995, "MEAN_ANOMALY": 332.4619, "EPHEMERIS_TYPE": 0, "CLASSIFICATION_TYPE": "U", "NORAD_CAT_ID": 35982, "ELEMENT_SET_NO": 999, "REV_AT_EPOCH": 86333, "BSTAR": 0.00066289609, "MEAN_MOTION_DOT": 3.457e-05, "MEAN_MOTION_DDOT": 0}, "tle": {"line1": "1 35982U 93036AVY 25358.17437322  .00003457  00000+0  66290-3 0  9994", "line2": "2 35982  74.0585 325.0386 0064553  27.9995 332.4619 14.62815300863330"}}, "geometry": {"type": "Point", "coordinates": [-48.95872240913502, -32.7817923832237]}}, {"type": "Feature", "properties": {"norad_id": 35987, "name": "COSMOS 2251 DEB", "group": "cosmos-2251-debris", "lat": 66.06393547241251, "lon": 81.79121192059769, "alt_km": 717.3710380755483, "timestamp": "2025-12-25T22:42:17.410070+00:00", "meta": {"OBJECT_NAME": "COSMOS 2251 DEB", "OBJECT_ID": "1993-036AWD", "EPOCH": "2025-12-24T02:57:19.909440", "MEAN_MOTION": 14.43193556, "ECCENTRICITY": 0.00463714, "INCLINATION": 74.0006, "RA_OF_ASC_NODE": 305.4518, "ARG_OF_PERICENTER": 67.5999, "MEAN_ANOMALY": 293.006, "EPHEMERIS_TYPE": 0, "CLASSIFICATION_TYPE": "U", "NORAD_CAT_ID": 35987, "ELEMENT_SET_NO": 999, "REV_AT_EPOCH": 61229, "BSTAR": 0.0010350673, "MEAN_MOTION_DOT": 3.5e-05, "MEAN_MOTION_DDOT": 0}, "tle": {"line1": "1 35987U 93036AWD 25358.12314710  .00003500  00000+0  10351-2 0  9994", "line2": "2 35987  74.0006 305.4518 0046371  67.5999 293.0060 14.43193556612294"}}, "geometry": {"type": "Point", "coordinates": [81.79121192059769, 66.06393547241251]}}, {"type": "Feature", "properties": {"norad_id": 35989, "name": "COSMOS 2251 DEB", "group": "cosmos-2251-debris", "lat": -42.63179314111779, "lon": 94.82353496090012, "alt_km": 780.7634055355793, "timestamp": "2025-12-25T22:42:17.410080+00:00", "meta": {"OBJECT_NAME": "COSMOS 2251 DEB", "OBJECT_ID": "1993-036AWF", "EPOCH": "2025-12-24T23:56:32.042112", "MEAN_MOTION": 14.37117846, "ECCENTRICITY": 0.00225269, "INCLINATION": 74.0381, "RA_OF_ASC_NODE": 261.2904, "ARG_OF_PERICENTER": 340.4505, "MEAN_ANOMALY": 19.5782, "EPHEMERIS_TYPE": 0, "CLASSIFICATION_TYPE": "U", "NORAD_CAT_ID": 35989, "ELEMENT_SET_NO": 999, "REV_AT_EPOCH": 87355, "BSTAR": 0.00020115023, "MEAN_MOTION_DOT": 5.73e-06, "MEAN_MOTION_DDOT": 0}, "tle": {"line1": "1 35989U 93036AWF 25358.99759308  .00000573  00000+0  20115-3 0  9994", "line2": "2 35989  74.0381 261.2904 0022526 340.4505  19.5782 14.37117846873553"}}, "geometry": {"type": "Point", "coordinates": [94.82353496090012, -42.63179314111779]}}, {"type": "Feature", "properties": {"norad_id": 35993, "name": "COSMOS 2251 DEB", "group": "cosmos-2251-debris", "lat": 3.968183743827572, "lon": -51.509590068165274, "alt_km": 690.5279804485999, "timestamp": "2025-12-25T22:42:17.410090+00:00", "meta": {"OBJECT_NAME": "COSMOS 2251 DEB", "OBJECT_ID": "1993-036AWK", "EPOCH": "2025-12-21T03:59:29.501088", "MEAN_MOTION": 14.65356197, "ECCENTRICITY": 0.0028516, "INCLINATION": 74.0154, "RA_OF_ASC_NODE": 316.5577, "ARG_OF_PERICENTER": 143.4068, "MEAN_ANOMALY": 216.9056, "EPHEMERIS_TYPE": 0, "CLASSIFICATION_TYPE": "U", "NORAD_CAT_ID": 35993, "ELEMENT_SET_NO": 999, "REV_AT_EPOCH": 60566, "BSTAR": 0.00046927088, "MEAN_MOTION_DOT": 2.519e-05, "MEAN_MOTION_DDOT": 0}, "tle": {"line1": "1 35993U 93036AWK 25355.16631367  .00002519  00000+0  46927-3 0  9990", "line2": "2 35993  74.0154 316.5577 0028516 143.4068 216.9056 14.65356197605663"}}, "geometry": {"type": "Point", "coordinates": [-51.509590068165274, 3.968183743827572]}}, {"type": "Feature", "properties": {"norad_id": 35996, "name": "COSMOS 2251 DEB", "group": "cosmos-2251-debris", "lat": 15.861434347871535, "lon": 80.83349541032362, "alt_km": 589.002756607355, "timestamp": "2025-12-25T22:42:17.410100+00:00", "meta": {"OBJECT_NAME": "COSMOS 2251 DEB", "OBJECT_ID": "1993-036AWN", "EPOCH": "2025-12-15T22:25:06.327264", "MEAN_MOTION": 15.09228347, "ECCENTRICITY": 0.00876626, "INCLINATION": 74.0159, "RA_OF_ASC_NODE": 96.8248, "ARG_OF_PERICENTER": 187.0066, "MEAN_ANOMALY": 172.9909, "EPHEMERIS_TYPE": 0, "CLASSIFICATION_TYPE": "U", "NORAD_CAT_ID": 35996, "ELEMENT_SET_NO": 999, "REV_AT_EPOCH": 72374, "BSTAR": 0.00054952121, "MEAN_MOTION_DOT": 9.536e-05, "MEAN_MOTION_DDOT": 0}, "tle": {"line1": "1 35996U 93036AWN 25349.93410101  .00009536  00000+0  54952-3 0  9995", "line2": "2 35996  74.0159  96.8248 0087662 187.0066 172.9909 15.09228347723745"}}, "geometry": {"type": "Point", "coordinates": [80.83349541032362, 15.861434347871535]}}, {"type": "Feature", "properties": {"norad_id": 35997, "name": "COSMOS 2251 DEB", "group": "cosmos-2251-debris", "lat": -52.73378043101217, "lon": 4.545983525303724, "alt_km": 716.8597338107475, "timestamp": "2025-12-25T22:42:17.410110+00:00", "meta": {"OBJECT_NAME": "COSMOS 2251 DEB", "OBJECT_ID": "1993-036AWP", "EPOCH": "2025-12-23T05:06:13.780800", "MEAN_MOTION": 14.51360271, "ECCENTRICITY": 0.0015396, "INCLINATION": 74.0436, "RA_OF_ASC_NODE": 167.5974, "ARG_OF_PERICENTER": 242.7596, "MEAN_ANOMALY": 117.1997, "EPHEMERIS_TYPE": 0, "CLASSIFICATION_TYPE": "U", "NORAD_CAT_ID": 35997, "ELEMENT_SET_NO": 999, "REV_AT_EPOCH": 71036, "BSTAR": 0.00062809556, "MEAN_MOTION_DOT": 2.48e-05, "MEAN_MOTION_DDOT": 0}, "tle": {"line1": "1 35997U 93036AWP 25357.21265950  .00002480  00000+0  62810-3 0  9999", "line2": "2 35997  74.0436 167.5974 0015396 242.7596 117.1997 14.51360271710369"}}, "geometry": {"type": "Point", "coordinates": [4.545983525303724, -52.73378043101217]}}, {"type": "Feature", "properties": {"norad_id": 36005, "name": "COSMOS 2251 DEB", "group": "cosmos-2251-debris", "lat": 70.04773763084884, "lon": 121.38809992079615, "alt_km": 752.5731087983959, "timestamp": "2025-12-25T22:42:17.410121+00:00", "meta": {"OBJECT_NAME": "COSMOS 2251 DEB", "OBJECT_ID": "1993-036AWX", "EPOCH": "2025-12-25T12:23:21.312096", "MEAN_MOTION": 14.47376705, "ECCENTRICITY": 0.0061491, "INCLINATION": 74.027, "RA_OF_ASC_NODE": 70.1013, "ARG_OF_PERICENTER": 204.7491, "MEAN_ANOMALY": 155.0716, "EPHEMERIS_TYPE": 0, "CLASSIFICATION_TYPE": "U", "NORAD_CAT_ID": 36005, "ELEMENT_SET_NO": 999, "REV_AT_EPOCH": 87769, "BSTAR": 0.00018917, "MEAN_MOTION_DOT": 6.81e-06, "MEAN_MOTION_DDOT": 0}, "tle": {"line1": "1 36005U 93036AWX 25359.51621889  .00000681  00000+0  18917-3 0  9992", "line2": "2 36005  74.0270  70.1013 0061491 204.7491 155.0716 14.47376705877692"}}, "geometry": {"type": "Point", "coordinates": [121.38809992079615, 70.04773763084884]}}, {"type": "Feature", "properties": {"norad_id": 36045, "name": "COSMOS 2251 DEB", "group": "cosmos-2251-debris", "lat": 47.132937032294976, "lon": -165.23206028270818, "alt_km": 654.010626306057, "timestamp": "2025-12-25T22:42:17.410131+00:00", "meta": {"OBJECT_NAME": "COSMOS 2251 DEB", "OBJECT_ID": "1993-036AXG", "EPOCH": "2025-12-17T21:23:36.435552", "MEAN_MOTION": 14.69971183, "ECCENTRICITY": 0.0048002, "INCLINATION": 73.7643, "RA_OF_ASC_NODE": 48.9349, "ARG_OF_PERICENTER": 60.9199, "MEAN_ANOMALY": 299.6765, "EPHEMERIS_TYPE": 0, "CLASSIFICATION_TYPE": "U", "NORAD_CAT_ID": 36045, "ELEMENT_SET_NO": 999, "REV_AT_EPOCH": 8464, "BSTAR": 0.0014164853, "MEAN_MOTION_DOT": 8.618e-05, "MEAN_MOTION_DDOT": 0}, "tle": {"line1": "1 36045U 93036AXG 25351.89139393  .00008618  00000+0  14165-2 0  9991", "line2": "2 36045  73.7643  48.9349 0048002  60.9199 299.6765 14.69971183 84640"}}, "geometry": {"type": "Point", "coordinates": [-165.23206028270818, 47.132937032294976]}}, {"type": "Feature", "properties": {"norad_id": 36046, "name": "COSMOS 2251 DEB", "group": "cosmos-2251-debris", "lat": -32.04284452979497, "lon": -119.27821914384243, "alt_km": 666.0568011280502, "timestamp": "2025-12-25T22:42:17.410140+00:00", "meta": {"OBJECT_NAME": "COSMOS 2251 DEB", "OBJECT_ID": "1993-036AXH", "EPOCH": "2025-12-21T00:56:56.522112", "MEAN_MOTION": 14.65315014, "ECCENTRICITY": 0.00558701, "INCLINATION": 74.0169, "RA_OF_ASC_NODE": 260.5061, "ARG_OF_PERICENTER": 44.1197, "MEAN_ANOMALY": 331.1837, "EPHEMERIS_TYPE": 0, "CLASSIFICATION_TYPE": "U", "NORAD_CAT_ID": 36046, "ELEMENT_SET_NO": 999, "REV_AT_EPOCH": 64125, "BSTAR": 0.00034570915, "MEAN_MOTION_DOT": 1.877e-05, "MEAN_MOTION_DDOT": 0}, "tle": {"line1": "1 36046U 93036AXH 25355.03954308  .00001877  00000+0  34571-3 0  9997", "line2": "2 36046  74.0169 260.5061 0055870  44.1197 331.1837 14.65315014641253"}}, "geometry": {"type": "Point", "coordinates": [-119.27821914384243, -32.04284452979497]}}, {"type": "Feature", "properties": {"norad_id": 36047, "name": "COSMOS 2251 DEB", "group": "cosmos-2251-debris", "lat": -64.54506135080332, "lon": -89.49485453412302, "alt_km": 579.9799113806939, "timestamp": "2025-12-25T22:42:17.410150+00:00", "meta": {"OBJECT_NAME": "COSMOS 2251 DEB", "OBJECT_ID": "1993-036AXJ", "EPOCH": "2025-12-21T21:08:53.075040", "MEAN_MOTION": 14.96393257, "ECCENTRICITY": 0.000841, "INCLINATION": 74.036, "RA_OF_ASC_NODE": 315.6865, "ARG_OF_PERICENTER": 344.906, "MEAN_ANOMALY": 15.1873, "EPHEMERIS_TYPE": 0, "CLASSIFICATION_TYPE": "U", "NORAD_CAT_ID": 36047, "ELEMENT_SET_NO": 999, "REV_AT_EPOCH": 66076, "BSTAR": 0.0028311075, "MEAN_MOTION_DOT": 0.00032218, "MEAN_MOTION_DDOT": 0}, "tle": {"line1": "1 36047U 93036AXJ 25355.88116985  .00032218  00000+0  28311-2 0  9999", "line2": "2 36047  74.0360 315.6865 0008410 344.9060  15.1873 14.96393257660764"}}, "geometry": {"type": "Point", "coordinates": [-89.49485453412302, -64.54506135080332]}}]}